ONEWEB-0425             
1 51628U 22012G   26162.68623078 -.00000537  00000+0 -15746-2 0  9997
2 51628  87.8840  37.3632 0002102  78.0921 282.0442 13.10374806208606
ONEWEB-0428             
1 51629U 22012H   26162.66630356 -.00000335  00000+0 -99613-3 0  9995
2 51629  87.8833  37.3740 0001772  80.7689 279.3638 13.10370179208562
ONEWEB-0431             
1 51630U 22012J   26162.63630429  .00000676  00000+0  19011-2 0  9994
2 51630  87.8840  37.3724 0001383  99.7655 260.3628 13.10374317208618
ONEWEB-0434             
1 51631U 22012K   26162.68968466 -.00000401  00000+0 -11850-2 0  9996
2 51631  87.8845  37.3868 0002371  73.8908 286.2480 13.10375051208603
ONEWEB-0435             
1 51632U 22012L   26162.62147932  .00000043  00000+0  88242-4 0  9999
2 51632  87.8837  37.3870 0001435  79.9405 280.1885 13.10373862208584
ONEWEB-0436             
1 51633U 22012M   26162.59293727 -.00000018  00000+0 -80089-4 0  9995
2 51633  87.9145   6.9583 0001642  86.8719 273.2600 13.17648398212945
ONEWEB-0438             
1 51634U 22012N   26162.68124242 -.00000646  00000+0 -18875-2 0  9990
2 51634  87.8838  37.3777 0001990  80.3710 279.7643 13.10373218208620
ONEWEB-0439             
1 51635U 22012P   26162.68457507  .00000008  00000+0 -13075-4 0  9994
2 51635  87.8837  37.3648 0001816  81.6083 278.5250 13.10370901208606
ONEWEB-0442             
1 51636U 22012Q   26162.58534970  .00000068  00000+0  14151-3 0  9994
2 51636  87.9138   6.9928 0002415  84.6670 275.4737 13.17649162212938
ONEWEB-0443             
1 51637U 22012R   26162.60474863  .00000075  00000+0  15917-3 0  9991
2 51637  87.9134   6.9902 0001862  76.2619 283.8719 13.17649144212980
ONEWEB-0444             
1 51638U 22012S   26162.67460219 -.00000626  00000+0 -18296-2 0  9995
2 51638  87.8835  37.3650 0001829  76.6969 283.4362 13.10371932208616
ONEWEB-0445             
1 51639U 22012T   26162.69619391 -.00000109  00000+0 -34770-3 0  9997
2 51639  87.8848  37.3488 0001817  88.7869 271.3466 13.10375544208625
ONEWEB-0446             
1 51640U 22012U   26162.67293855 -.00000511  00000+0 -15005-2 0  9996
2 51640  87.8835  37.3823 0001846  86.6782 273.4556 13.10371619208609
ONEWEB-0448             
1 51641U 22012V   26162.67792561 -.00000647  00000+0 -18912-2 0  9995
2 51641  87.8834  37.3779 0001789  79.1691 280.9637 13.10373052208573
ONEWEB-0449             
1 51642U 22012W   26162.68290323 -.00000580  00000+0 -16971-2 0  9995
2 51642  87.8840  37.3625 0002195  76.2304 283.9068 13.10373823208580
ONEWEB-0451             
1 51643U 22012X   26162.58957421  .00000079  00000+0  17045-3 0  9999
2 51643  87.9147   6.9562 0002044  82.9359 277.2005 13.17649303212927
ONEWEB-0452             
1 51644U 22012Y   26162.58787509  .00000051  00000+0  97663-4 0  9993
2 51644  87.9136   6.9939 0001963  77.7282 282.4069 13.17648753212937
ONEWEB-0456             
1 51646U 22012AA  26162.69285220 -.00000203  00000+0 -61904-3 0  9999
2 51646  87.8849  37.3474 0001664  79.6097 280.5218 13.10374646208620
ONEWEB-0457             
1 51647U 22012AB  26162.66948096 -.00000475  00000+0 -13976-2 0  9990
2 51647  87.8833  37.3707 0002112  89.7866 270.3504 13.10369422208629
ONEWEB-0458             
1 51648U 22012AC  26162.69120735 -.00000317  00000+0 -94531-3 0  9998
2 51648  87.8849  37.3538 0001893  75.9404 284.1934 13.10374951208587
ONEWEB-0461             
1 51649U 22012AD  26162.60981029  .00000053  00000+0  10441-3 0  9994
2 51649  87.9144   6.9664 0001923  89.5395 270.5957 13.17647612213150
ONEWEB-0463             
1 51650U 22012AE  26162.59125851  .00000064  00000+0  13142-3 0  9990
2 51650  87.9134   6.9929 0001948  90.8071 269.3284 13.17648660212936
ONEWEB-0464             
1 51651U 22012AF  26162.68788447 -.00000451  00000+0 -13293-2 0  9995
2 51651  87.8843  37.3767 0001638  73.9186 286.2122 13.10374860208605
ONEWEB-0468             
1 51652U 22012AG  26162.61817332 -.00000148  00000+0 -45951-3 0  9995
2 51652  87.8839  37.3846 0001586  72.7183 287.4118 13.10375720208575
ONEWEB-0473             
1 51653U 22012AH  26162.67958007 -.00000626  00000+0 -18294-2 0  9997
2 51653  87.8836  37.3738 0001799  77.8708 282.2621 13.10372967208581
ONEWEB-0474             
1 51654U 22012AJ  26162.67128000 -.00000540  00000+0 -15831-2 0  9999
2 51654  87.8844  37.3590 0001673  72.3887 287.7423 13.10370528208576
ONEWEB-0475             
1 51655U 22012AK  26162.60306885  .00000041  00000+0  71542-4 0  9999
2 51655  87.9135   6.9837 0001664  66.6504 293.4803 13.17648192212954
ONEWEB-0490             
1 54113U 22138A   26162.67577262  .00000045  00000+0  80506-4 0  9990
2 54113  87.9174 306.0648 0001674  98.9014 261.2308 13.19724975176103
ONEWEB-0492             
1 54114U 22138B   26162.39778688  .00000065  00000+0  13119-3 0  9992
2 54114  87.9164 306.1219 0001740 105.4265 254.7060 13.19726080176071
ONEWEB-0495             
1 54115U 22138C   26162.37566433  .00000007  00000+0 -14052-4 0  9999
2 54115  87.9166 306.1289 0001175 100.0821 260.0445 13.19724301176051
ONEWEB-0497             
1 54116U 22138D   26162.69156734  .00000062  00000+0  12205-3 0  9991
2 54116  87.9168 306.0576 0001768  98.9100 261.2233 13.19724825176087
